[{"OBJECT_NAME":"STARLINK-36858","OBJECT_ID":"2026-040G","EPOCH":"2026-03-15T09:27:52.728192","MEAN_MOTION":16.05679276,"ECCENTRICITY":8.53e-5,"INCLINATION":97.2746,"RA_OF_ASC_NODE":23.1317,"ARG_OF_PERICENTER":148.8041,"MEAN_ANOMALY":211.3292,"EPHEMERIS_TYPE":0,"CLASSIFICATION_TYPE":"U","NORAD_CAT_ID":68021,"ELEMENT_SET_NO":999,"REV_AT_EPOCH":225,"BSTAR":-0.0010615,"MEAN_MOTION_DOT":-0.00749803,"MEAN_MOTION_DDOT":0.00020538},{"OBJECT_NAME":"STARLINK-36916","OBJECT_ID":"2026-040H","EPOCH":"2026-03-15T14:00:01.999872","MEAN_MOTION":15.9141155,"ECCENTRICITY":0.00015196,"INCLINATION":97.2714,"RA_OF_ASC_NODE":23.2655,"ARG_OF_PERICENTER":96.9325,"MEAN_ANOMALY":104.4437,"EPHEMERIS_TYPE":0,"CLASSIFICATION_TYPE":"U","NORAD_CAT_ID":68022,"ELEMENT_SET_NO":999,"REV_AT_EPOCH":337,"BSTAR":-0.0050393687,"MEAN_MOTION_DOT":-0.01598353,"MEAN_MOTION_DDOT":0.00071335248},{"OBJECT_NAME":"STARLINK-36871","OBJECT_ID":"2026-040J","EPOCH":"2026-03-15T14:00:01.999872","MEAN_MOTION":15.91452313,"ECCENTRICITY":0.00015375,"INCLINATION":97.2712,"RA_OF_ASC_NODE":23.2665,"ARG_OF_PERICENTER":91.6213,"MEAN_ANOMALY":113.9495,"EPHEMERIS_TYPE":0,"CLASSIFICATION_TYPE":"U","NORAD_CAT_ID":68023,"ELEMENT_SET_NO":999,"REV_AT_EPOCH":337,"BSTAR":-0.0050555833,"MEAN_MOTION_DOT":-0.01606741,"MEAN_MOTION_DDOT":0.00072060393},{"OBJECT_NAME":"STARLINK-36891","OBJECT_ID":"2026-040K","EPOCH":"2026-03-15T14:00:01.999872","MEAN_MOTION":15.91456427,"ECCENTRICITY":0.00015699,"INCLINATION":97.2713,"RA_OF_ASC_NODE":23.2691,"ARG_OF_PERICENTER":87.9677,"MEAN_ANOMALY":122.4371,"EPHEMERIS_TYPE":0,"CLASSIFICATION_TYPE":"U","NORAD_CAT_ID":68024,"ELEMENT_SET_NO":999,"REV_AT_EPOCH":337,"BSTAR":-0.0050716327,"MEAN_MOTION_DOT":-0.01612126,"MEAN_MOTION_DDOT":0.00072512049},{"OBJECT_NAME":"STARLINK-36378","OBJECT_ID":"2026-040L","EPOCH":"2026-03-15T14:00:01.999872","MEAN_MOTION":15.91511381,"ECCENTRICITY":0.00015046,"INCLINATION":97.2733,"RA_OF_ASC_NODE":23.2742,"ARG_OF_PERICENTER":97.8742,"MEAN_ANOMALY":121.3892,"EPHEMERIS_TYPE":0,"CLASSIFICATION_TYPE":"U","NORAD_CAT_ID":68025,"ELEMENT_SET_NO":999,"REV_AT_EPOCH":332,"BSTAR":-0.0050870144,"MEAN_MOTION_DOT":-0.01621435,"MEAN_MOTION_DDOT":0.0007333061},{"OBJECT_NAME":"STARLINK-36884","OBJECT_ID":"2026-040M","EPOCH":"2026-03-15T14:00:01.999872","MEAN_MOTION":15.91479422,"ECCENTRICITY":0.00015225,"INCLINATION":97.2724,"RA_OF_ASC_NODE":23.2712,"ARG_OF_PERICENTER":90.9355,"MEAN_ANOMALY":123.9853,"EPHEMERIS_TYPE":0,"CLASSIFICATION_TYPE":"U","NORAD_CAT_ID":68026,"ELEMENT_SET_NO":999,"REV_AT_EPOCH":337,"BSTAR":-0.0050858167,"MEAN_MOTION_DOT":-0.0161845,"MEAN_MOTION_DDOT":0.00073057216},{"OBJECT_NAME":"STARLINK-36940","OBJECT_ID":"2026-040N","EPOCH":"2026-03-15T14:00:01.999872","MEAN_MOTION":15.9088195,"ECCENTRICITY":0.00015441,"INCLINATION":97.2801,"RA_OF_ASC_NODE":23.3045,"ARG_OF_PERICENTER":101.9576,"MEAN_ANOMALY":186.3635,"EPHEMERIS_TYPE":0,"CLASSIFICATION_TYPE":"U","NORAD_CAT_ID":68027,"ELEMENT_SET_NO":999,"REV_AT_EPOCH":347,"BSTAR":-0.0065282702,"MEAN_MOTION_DOT":-0.02010164,"MEAN_MOTION_DDOT":0.0010880837},{"OBJECT_NAME":"STARLINK-36253","OBJECT_ID":"2026-040P","EPOCH":"2026-03-15T14:00:01.999872","MEAN_MOTION":15.80893265,"ECCENTRICITY":0.00013966,"INCLINATION":97.2841,"RA_OF_ASC_NODE":23.083,"ARG_OF_PERICENTER":56.4828,"MEAN_ANOMALY":81.7872,"EPHEMERIS_TYPE":0,"CLASSIFICATION_TYPE":"U","NORAD_CAT_ID":68028,"ELEMENT_SET_NO":999,"REV_AT_EPOCH":347,"BSTAR":-0.00042506868,"MEAN_MOTION_DOT":-0.00081098,"MEAN_MOTION_DDOT":0},{"OBJECT_NAME":"STARLINK-36944","OBJECT_ID":"2026-040Q","EPOCH":"2026-03-15T14:00:01.999872","MEAN_MOTION":15.91557034,"ECCENTRICITY":0.00015151,"INCLINATION":97.2723,"RA_OF_ASC_NODE":23.2742,"ARG_OF_PERICENTER":93.0114,"MEAN_ANOMALY":130.3259,"EPHEMERIS_TYPE":0,"CLASSIFICATION_TYPE":"U","NORAD_CAT_ID":68029,"ELEMENT_SET_NO":999,"REV_AT_EPOCH":337,"BSTAR":-0.0050824788,"MEAN_MOTION_DOT":-0.01623745,"MEAN_MOTION_DDOT":0.00073558109},{"OBJECT_NAME":"STARLINK-36942","OBJECT_ID":"2026-040R","EPOCH":"2026-03-15T14:00:01.999872","MEAN_MOTION":15.91591387,"ECCENTRICITY":0.00015742,"INCLINATION":97.274,"RA_OF_ASC_NODE":23.2775,"ARG_OF_PERICENTER":97.9844,"MEAN_ANOMALY":129.7706,"EPHEMERIS_TYPE":0,"CLASSIFICATION_TYPE":"U","NORAD_CAT_ID":68030,"ELEMENT_SET_NO":999,"REV_AT_EPOCH":337,"BSTAR":-0.0051099809,"MEAN_MOTION_DOT":-0.0163528,"MEAN_MOTION_DDOT":0.0007455615},{"OBJECT_NAME":"STARLINK-36913","OBJECT_ID":"2026-040S","EPOCH":"2026-03-15T14:00:01.999872","MEAN_MOTION":15.91628374,"ECCENTRICITY":0.00015911,"INCLINATION":97.2744,"RA_OF_ASC_NODE":23.2794,"ARG_OF_PERICENTER":102.9903,"MEAN_ANOMALY":129.1651,"EPHEMERIS_TYPE":0,"CLASSIFICATION_TYPE":"U","NORAD_CAT_ID":68031,"ELEMENT_SET_NO":999,"REV_AT_EPOCH":337,"BSTAR":-0.0051272793,"MEAN_MOTION_DOT":-0.01643825,"MEAN_MOTION_DDOT":0.00075308492},{"OBJECT_NAME":"STARLINK-36935","OBJECT_ID":"2026-040T","EPOCH":"2026-03-15T14:00:01.999872","MEAN_MOTION":15.91941023,"ECCENTRICITY":0.00014953,"INCLINATION":97.2773,"RA_OF_ASC_NODE":23.2927,"ARG_OF_PERICENTER":103.0266,"MEAN_ANOMALY":159.7651,"EPHEMERIS_TYPE":0,"CLASSIFICATION_TYPE":"U","NORAD_CAT_ID":68032,"ELEMENT_SET_NO":999,"REV_AT_EPOCH":347,"BSTAR":-0.0052968016,"MEAN_MOTION_DOT":-0.01724583,"MEAN_MOTION_DDOT":0.00082586928},{"OBJECT_NAME":"STARLINK-36947","OBJECT_ID":"2026-040U","EPOCH":"2026-03-15T14:00:01.999872","MEAN_MOTION":15.91680397,"ECCENTRICITY":0.00014707,"INCLINATION":97.2748,"RA_OF_ASC_NODE":23.281,"ARG_OF_PERICENTER":97.7408,"MEAN_ANOMALY":138.3171,"EPHEMERIS_TYPE":0,"CLASSIFICATION_TYPE":"U","NORAD_CAT_ID":68033,"ELEMENT_SET_NO":999,"REV_AT_EPOCH":337,"BSTAR":-0.0050862988,"MEAN_MOTION_DOT":-0.01635102,"MEAN_MOTION_DDOT":0.00074607505},{"OBJECT_NAME":"STARLINK-36939","OBJECT_ID":"2026-040V","EPOCH":"2026-03-15T14:00:01.999872","MEAN_MOTION":15.91865319,"ECCENTRICITY":0.00015535,"INCLINATION":97.2774,"RA_OF_ASC_NODE":23.2894,"ARG_OF_PERICENTER":101.9633,"MEAN_ANOMALY":151.1152,"EPHEMERIS_TYPE":0,"CLASSIFICATION_TYPE":"U","NORAD_CAT_ID":68034,"ELEMENT_SET_NO":999,"REV_AT_EPOCH":337,"BSTAR":-0.0051033322,"MEAN_MOTION_DOT":-0.0165596,"MEAN_MOTION_DDOT":0.0007652544},{"OBJECT_NAME":"STARLINK-36943","OBJECT_ID":"2026-040W","EPOCH":"2026-03-15T14:00:01.999872","MEAN_MOTION":15.91590316,"ECCENTRICITY":0.00015,"INCLINATION":97.2796,"RA_OF_ASC_NODE":23.2994,"ARG_OF_PERICENTER":101.8985,"MEAN_ANOMALY":172.1962,"EPHEMERIS_TYPE":0,"CLASSIFICATION_TYPE":"U","NORAD_CAT_ID":68035,"ELEMENT_SET_NO":999,"REV_AT_EPOCH":342,"BSTAR":-0.006044059,"MEAN_MOTION_DOT":-0.01930277,"MEAN_MOTION_DDOT":0.0010156127},{"OBJECT_NAME":"STARLINK-36906","OBJECT_ID":"2026-040X","EPOCH":"2026-03-15T14:00:01.999872","MEAN_MOTION":15.91808136,"ECCENTRICITY":0.00016046,"INCLINATION":97.2763,"RA_OF_ASC_NODE":23.2872,"ARG_OF_PERICENTER":102.1753,"MEAN_ANOMALY":146.8689,"EPHEMERIS_TYPE":0,"CLASSIFICATION_TYPE":"U","NORAD_CAT_ID":68036,"ELEMENT_SET_NO":999,"REV_AT_EPOCH":337,"BSTAR":-0.0051204365,"MEAN_MOTION_DOT":-0.01656653,"MEAN_MOTION_DDOT":0.00076540984}]
