STARLINK-36858          
1 68021U 26040G   26074.39436028 -.00749803  20538-3 -10615-2 0  9992
2 68021  97.2746  23.1317 0000853 148.8041 211.3292 16.05679276  2251
STARLINK-36916          
1 68022U 26040H   26074.58335648 -.01598353  71335-3 -50394-2 0  9992
2 68022  97.2714  23.2655 0001519  96.9325 104.4437 15.91411550  3371
STARLINK-36871          
1 68023U 26040J   26074.58335648 -.01606741  72060-3 -50556-2 0  9990
2 68023  97.2712  23.2665 0001537  91.6213 113.9495 15.91452313  3370
STARLINK-36891          
1 68024U 26040K   26074.58335648 -.01612126  72512-3 -50716-2 0  9995
2 68024  97.2713  23.2691 0001569  87.9677 122.4371 15.91456427  3376
STARLINK-36378          
1 68025U 26040L   26074.58335648 -.01621435  73331-3 -50870-2 0  9990
2 68025  97.2733  23.2742 0001504  97.8742 121.3892 15.91511381  3320
STARLINK-36884          
1 68026U 26040M   26074.58335648 -.01618450  73057-3 -50858-2 0  9995
2 68026  97.2724  23.2712 0001522  90.9355 123.9853 15.91479422  3371
STARLINK-36940          
1 68027U 26040N   26074.58335648 -.02010164  10881-2 -65283-2 0  9998
2 68027  97.2801  23.3045 0001544 101.9576 186.3635 15.90881950  3474
STARLINK-36253          
1 68028U 26040P   26074.58335648 -.00081098  00000+0 -42507-3 0  9995
2 68028  97.2841  23.0830 0001396  56.4828  81.7872 15.80893265  3479
STARLINK-36944          
1 68029U 26040Q   26074.58335648 -.01623745  73558-3 -50825-2 0  9991
2 68029  97.2723  23.2742 0001515  93.0114 130.3259 15.91557034  3373
STARLINK-36942          
1 68030U 26040R   26074.58335648 -.01635280  74556-3 -51100-2 0  9996
2 68030  97.2740  23.2775 0001574  97.9844 129.7706 15.91591387  3376
STARLINK-36913          
1 68031U 26040S   26074.58335648 -.01643825  75308-3 -51273-2 0  9998
2 68031  97.2744  23.2794 0001591 102.9903 129.1651 15.91628374  3374
STARLINK-36935          
1 68032U 26040T   26074.58335648 -.01724583  82587-3 -52968-2 0  9999
2 68032  97.2773  23.2927 0001495 103.0266 159.7651 15.91941023  3471
STARLINK-36947          
1 68033U 26040U   26074.58335648 -.01635102  74608-3 -50863-2 0  9995
2 68033  97.2748  23.2810 0001470  97.7408 138.3171 15.91680397  3378
STARLINK-36939          
1 68034U 26040V   26074.58335648 -.01655960  76525-3 -51033-2 0  9990
2 68034  97.2774  23.2894 0001553 101.9633 151.1152 15.91865319  3371
STARLINK-36943          
1 68035U 26040W   26074.58335648 -.01930277  10156-2 -60441-2 0  9998
2 68035  97.2796  23.2994 0001500 101.8985 172.1962 15.91590316  3428
STARLINK-36906          
1 68036U 26040X   26074.58335648 -.01656653  76541-3 -51204-2 0  9990
2 68036  97.2763  23.2872 0001604 102.1753 146.8689 15.91808136  3370
